1 16908U 86061A   20355.91624030 -.00000101  00000-0 -23360-4 0  9997
2 16908  50.0061 190.3412 0011568 118.1123  45.8440 12.44493273230959
1 16908U 86061A   20356.14703237 -.00000106  00000-0 -58189-4 0  9992
2 16908  50.0061 189.6315 0011566 118.6981 359.8347 12.44493261231195
1 16908U 86061A   20356.45980046 -.00000105  00000-0 -51598-4 0  9997
2 16908  50.0061 188.6698 0011563 119.4900 321.0947 12.44493248231029
1 16908U 86061A   20356.95918241 -.00000100  00000-0 -15133-4 0  9990
2 16908  50.0070 187.1341 0011556 120.7510  38.4229 12.44493285231081
1 16908U 86061A   20357.50684365 -.00000101  00000-0 -21723-4 0  9992
2 16908  50.0070 185.4500 0011554 122.1416 332.0449 12.44493283231151
1 16908U 86061A   20357.50684365 -.00000101  00000-0 -21723-4 0  9992
2 16908  50.0070 185.4500 0011554 122.1416 332.0449 12.44493283231364
1 16908U 86061A   20358.63313062 -.00000088  00000-0  66904-4 0  9993
2 16908  50.0061 181.9866 0011564 124.9696 338.0467 12.44493255231298
1 16908U 86061A   20358.71754691 -.00000087  00000-0  74243-4 0  9993
2 16908  50.0061 181.7271 0011564 125.1800 356.2509 12.44493254231519
1 16908U 86061A   20359.84977517 -.00000097  00000-0  20764-5 0  9993
2 16908  50.0070 178.2456 0011549 128.1146  28.7804 12.44493328231447
1 16908U 86061A   20359.84977517 -.00000097  00000-0  20764-5 0  9993
2 16908  50.0070 178.2456 0011549 128.1146  28.7804 12.44493328231650
1 16908U 86061A   20360.54822549 -.00000083  00000-0  10109-3 0  9991
2 16908  50.0062 176.0977 0011559 129.8371 278.0148 12.44493297231537
1 16908U 86061A   20360.89641719 -.00000079  00000-0  12784-3 0  9993
2 16908  50.0062 175.0270 0011561 130.6810  38.0170 12.44493305231576
1 16908U 86061A   20361.60552807 -.00000090  00000-0  54170-4 0  9991
2 16908  50.0063 172.8465 0011558 132.4854 334.9589 12.44493297231664
1 16908U 86061A   20361.94042972 -.00000107  00000-0 -67385-4 0  9997
2 16908  50.0071 171.8168 0011554 133.3478  35.3678 12.44493275231702
1 16908U 86061A   20362.56994678 -.00000105  00000-0 -54548-4 0  9990
2 16908  50.0072 169.8811 0011551 134.9506 335.7142 12.44493274231781
1 16908U 86061A   20363.28135635 -.00000101  00000-0 -22494-4 0  9991
2 16908  50.0065 167.6934 0011547 136.7565 282.9588 12.44493321231875
1 16908U 86061A   20363.43742420 -.00000102  00000-0 -29991-4 0  9994
2 16908  50.0065 167.2135 0011548 137.1518 262.1721 12.44493320232103
1 16908U 86061A   20363.93253767 -.00000101  00000-0 -25645-4 0  9991
2 16908  50.0066 165.6910 0011548 138.3958 320.3838 12.44493338231955
1 16908U 86061A   20364.49719295 -.00000111  00000-0 -94885-4 0  9999
2 16908  50.0066 163.9547 0011542 139.8160 330.1558 12.44493311232025
1 16908U 86061A   20364.49719295 -.00000111  00000-0 -94885-4 0  9999
2 16908  50.0066 163.9547 0011542 139.8160 330.1558 12.44493311232238
1 16908U 86061A   20364.91034434 -.00000110  00000-0 -89391-4 0  9996
2 16908  50.0067 162.6844 0011541 140.8452  21.1690 12.44493319232074
1 16908U 86061A   20365.54156132 -.00000121  00000-0 -16465-3 0  9999
2 16908  50.0067 160.7434 0011538 142.4564 329.1274 12.44493288232159
1 16908U 86061A   20365.76089050 -.00000122  00000-0 -17221-3 0  9999
2 16908  50.0068 160.0690 0011534 143.0327 231.7425 12.44493281232392
1 16908U 86061A   20365.87478015 -.00000105  00000-0 -51591-4 0  9994
2 16908  50.0076 159.7189 0011529 143.3475  21.9622 12.44493283232198
1 16908U 86061A   20366.58800522 -.00000123  00000-0 -17718-3 0  9997
2 16908  50.0069 157.5256 0011532 145.1238 337.3759 12.44493271232284
1 16908U 86061A   20366.83436648 -.00000118  00000-0 -14601-3 0  9991
2 16908  50.0069 156.7681 0011529 145.7555   1.1129 12.44493278232522
1 16908U 86061A   20366.92030932 -.00000117  00000-0 -13476-3 0  9995
2 16908  50.0069 156.5038 0011528 145.9715  26.1546 12.44493282232328
1 16908U 86061A   20366.99583168 -.00000118  00000-0 -14506-3 0  9992
2 16908  50.0069 156.2716 0011527 146.1625   4.5092 12.44493280232335
1 16908U 86061A   21001.88248884 -.00000121  00000-0 -16665-3 0  9992
2 16908  50.0070 153.5452 0011526 148.4227  16.8851 12.44493227232448
1 16908U 86061A   21001.88248884 -.00000121  00000-0 -16665-3 0  9992
2 16908  50.0070 153.5452 0011526 148.4227  16.8851 12.44493227232651
1 16908U 86061A   21002.58685855 -.00000118  00000-0 -14167-3 0  9994
2 16908  50.0072 151.3792 0011523 150.2355 292.5648 12.44493212232534
1 16908U 86061A   21002.92145806 -.00000112  00000-0 -10459-3 0  9993
2 16908  50.0080 150.3507 0011519 151.0919 351.6238 12.44493261232576
1 16908U 86061A   21003.16896741 -.00000113  00000-0 -11077-3 0  9999
2 16908  50.0081 149.5896 0011516 151.7202  20.5107 12.44493254232813
1 16908U 86061A   21003.55955230 -.00000109  00000-0 -84999-4 0  9990
2 16908  50.0081 148.3886 0011516 152.7347 330.3792 12.44493266232657
1 16908U 86061A   21003.88164917 -.00000093  00000-0  33234-4 0  9997
2 16908  50.0074 147.3979 0011516 153.5032 333.4810 12.44493247232699
1 16908U 86061A   21004.18734660 -.00000093  00000-0  34714-4 0  9993
2 16908  50.0075 146.4579 0011513 154.2932 263.0470 12.44493245232946
1 16908U 86061A   21004.60150874 -.00000093  00000-0  29947-4 0  9991
2 16908  50.0076 145.1844 0011513 155.3622 318.5510 12.44493233232786
1 16908U 86061A   21005.46912571 -.00000097  00000-0  10269-5 0  9998
2 16908  50.0077 142.5165 0011507 157.5691 245.6280 12.44493203233105
1 16908U 86061A   21005.62343013 -.00000097  00000-0  15110-5 0  9995
2 16908  50.0078 142.0420 0011506 157.9741 216.9265 12.44493199232910
1 16908U 86061A   21005.89142911 -.00000111  00000-0 -96189-4 0  9990
2 16908  50.0085 141.2184 0011504 158.6595 337.6062 12.44493239232943
1 16908U 86061A   21006.53112240 -.00000097  00000-0 -22790-6 0  9996
2 16908  50.0080 139.2510 0011503 160.2940 323.5371 12.44493199233235
1 16908U 86061A   21006.60933943 -.00000095  00000-0  20364-4 0  9995
2 16908  50.0081 139.0105 0011502 160.4922 313.9641 12.44493209233038
1 16908U 86061A   21006.86541146 -.00000092  00000-0  38451-4 0  9996
2 16908  50.0081 138.2232 0011500 161.1395  21.2160 12.44493221233062
1 16908U 86061A   21007.49417010 -.00000096  00000-0  11418-4 0  9996
2 16908  50.0083 136.2898 0011501 162.7423 318.1624 12.44493219233149
1 16908U 86061A   21007.73178885 -.00000110  00000-0 -90352-4 0  9999
2 16908  50.0088 135.5595 0011495 163.3866 302.6967 12.44493206233380
1 16908U 86061A   21007.89364299 -.00000101  00000-0 -24441-4 0  9998
2 16908  50.0084 135.0616 0011496 163.7632 307.8665 12.44493203233199
1 16908U 86061A   21008.60686616 -.00000108  00000-0 -76799-4 0  9998
2 16908  50.0085 132.8685 0011504 165.5885 263.2213 12.44493183233282
1 16908U 86061A   21008.86275907 -.00000113  00000-0 -10677-3 0  9991
2 16908  50.0090 132.0819 0011500 166.2424 329.6636 12.44493173233524
1 16908U 86061A   21008.93928355 -.00000113  00000-0 -10708-3 0  9996
2 16908  50.0090 131.8466 0011500 166.4368 312.5071 12.44493172233329
1 16908U 86061A   21009.63904188 -.00000109  00000-0 -78918-4 0  9995
2 16908  50.0087 129.6949 0011494 168.2313 207.5335 12.44493193233417
1 16908U 86061A   21009.83661544 -.00000114  00000-0 -11702-3 0  9996
2 16908  50.0087 129.0874 0011493 168.7167  12.7150 12.44493179233436
1 16908U 86061A   21010.60256764 -.00000117  00000-0 -13502-3 0  9990
2 16908  50.0089 126.7322 0011483 170.7105 204.2704 12.44493170233539
1 16908U 86061A   21010.87306260 -.00000118  00000-0 -14687-3 0  9992
2 16908  50.0089 125.9005 0011479 171.3877 336.1463 12.44493165233560
1 16908U 86061A   21011.58375771 -.00000118  00000-0 -14602-3 0  9991
2 16908  50.0090 123.7153 0011475 173.2233 280.1578 12.44493151233655
1 16908U 86061A   21011.91079427 -.00000120  00000-0 -16225-3 0  9993
2 16908  50.0090 122.7097 0011471 174.0553 305.3391 12.44493143233699
1 16908U 86061A   21012.20767029 -.00000118  00000-0 -14753-3 0  9999
2 16908  50.0091 121.7969 0011470 174.8282 195.3780 12.44493133233949
1 16908U 86061A   21012.61050243 -.00000118  00000-0 -14385-3 0  9998
2 16908  50.0091 120.5582 0011470 175.8440 200.1458 12.44493124233783
1 16908U 86061A   21012.87369420 -.00000119  00000-0 -15338-3 0  9996
2 16908  50.0091 119.7490 0011467 176.5004 299.3044 12.44493115233816
1 16908U 86061A   21013.21055292 -.00000104  00000-0 -47493-4 0  9996
2 16908  50.0096 118.7133 0011465 177.3816   8.4655 12.44493155234061
1 16908U 86061A   21013.51021000 -.00000114  00000-0 -11459-3 0  9992
2 16908  50.0092 117.7918 0011468 178.1310 270.9955 12.44493108233895
1 16908U 86061A   21013.75908021 -.00000110  00000-0 -87678-4 0  9998
2 16908  50.0092 117.0266 0011464 178.7712 305.9706 12.44493111233923
1 16908U 86061A   21014.47314859 -.00000104  00000-0 -44065-4 0  9994
2 16908  50.0093 114.8309 0011464 180.6137 265.0963 12.44493105234228
1 16908U 86061A   21014.62116900 -.00000102  00000-0 -30504-4 0  9999
2 16908  50.0093 114.3758 0011462 180.9952 208.2486 12.44493097234035
1 16908U 86061A   21014.88229767 -.00000103  00000-0 -37163-4 0  9992
2 16908  50.0094 113.5729 0011458 181.6677 298.1426 12.44493091234061
1 16908U 86061A   21015.54047455 -.00000100  00000-0 -19628-4 0  9991
2 16908  50.0095 111.5491 0011458 183.3575   6.8749 12.44493072234355
1 16908U 86061A   21015.61037284 -.00000106  00000-0 -57521-4 0  9998
2 16908  50.0099 111.3344 0011455 183.5448 320.0223 12.44493143234157
1 16908U 86061A   21015.84515713 -.00000106  00000-0 -60461-4 0  9998
2 16908  50.0099 110.6124 0011453 184.1345 291.9048 12.44493148234185
1 16908U 86061A   21016.54544038 -.00000090  00000-0  52348-4 0  9994
2 16908  50.0096 108.4591 0011452 185.9265 189.2856 12.44493094234483
1 16908U 86061A   21016.57635484 -.00000090  00000-0  54946-4 0  9999
2 16908  50.0096 108.3641 0011452 186.0170 327.7759 12.44493095234274
1 16908U 86061A   21016.80825620 -.00000088  00000-0  68482-4 0  9995
2 16908  50.0096 107.6511 0011448 186.6030 286.7387 12.44493106234306
